{
  "type": "FeatureCollection",
  "features": [
    {
      "type": "Feature",
      "properties": {
        "norad_id": 64694,
        "name": "GOSAT-GW (IBUKI GW)",
        "group": "resource",
        "lat": -34.040563229113324,
        "lon": 108.9704620548322,
        "alt_km": 675.7716907579561,
        "timestamp": "2025-12-25T03:55:55.964341+00:00",
        "meta_object_name": "GOSAT-GW (IBUKI GW)",
        "meta_object_id": "2025-141A",
        "meta_epoch": "2025-12-24T20:24:47.906208",
        "meta_mean_motion": 14.6755852,
        "meta_eccentricity": 0.0001437,
        "meta_inclination": 98.0439,
        "meta_ra_of_asc_node": 294.1448,
        "meta_arg_of_pericenter": 82.4456,
        "meta_mean_anomaly": 277.6912,
        "meta_ephemeris_type": 0,
        "meta_classification_type": "U",
        "meta_norad_cat_id": 64694,
        "meta_element_set_no": 999,
        "meta_rev_at_epoch": 2627,
        "meta_bstar": 0.00018411,
        "meta_mean_motion_dot": 9.97e-06,
        "meta_mean_motion_ddot": 0,
        "tle_line1": "1 64694U 25141A   25358.85055447  .00000997  00000+0  18411-3 0  9995",
        "tle_line2": "2 64694  98.0439 294.1448 0001437  82.4456 277.6912 14.67558520 26274"
      },
      "geometry": {
        "type": "Point",
        "coordinates": [
          108.9704620548322,
          -34.040563229113324
        ]
      }
    },
    {
      "type": "Feature",
      "properties": {
        "norad_id": 64876,
        "name": "IONOSFERA-M 3",
        "group": "resource",
        "lat": -42.16899804274101,
        "lon": -31.461057962874378,
        "alt_km": 826.8603803228643,
        "timestamp": "2025-12-25T03:55:55.964352+00:00",
        "meta_object_name": "IONOSFERA-M 3",
        "meta_object_id": "2025-155A",
        "meta_epoch": "2025-12-24T21:22:31.562112",
        "meta_mean_motion": 14.21443871,
        "meta_eccentricity": 0.0001853,
        "meta_inclination": 98.58,
        "meta_ra_of_asc_node": 320.4138,
        "meta_arg_of_pericenter": 40.3179,
        "meta_mean_anomaly": 319.8136,
        "meta_ephemeris_type": 0,
        "meta_classification_type": "U",
        "meta_norad_cat_id": 64876,
        "meta_element_set_no": 999,
        "meta_rev_at_epoch": 2164,
        "meta_bstar": 5.3101e-05,
        "meta_mean_motion_dot": 7.3e-07,
        "meta_mean_motion_ddot": 0,
        "tle_line1": "1 64876U 25155A   25358.89064308  .00000073  00000+0  53101-4 0  9993",
        "tle_line2": "2 64876  98.5800 320.4138 0001853  40.3179 319.8136 14.21443871 21644"
      },
      "geometry": {
        "type": "Point",
        "coordinates": [
          -31.461057962874378,
          -42.16899804274101
        ]
      }
    },
    {
      "type": "Feature",
      "properties": {
        "norad_id": 64877,
        "name": "IONOSFERA-M 4",
        "group": "resource",
        "lat": 41.26992235033334,
        "lon": 148.21238691445694,
        "alt_km": 817.0806200169754,
        "timestamp": "2025-12-25T03:55:55.964362+00:00",
        "meta_object_name": "IONOSFERA-M 4",
        "meta_object_id": "2025-155B",
        "meta_epoch": "2025-12-24T20:31:38.706240",
        "meta_mean_motion": 14.21445014,
        "meta_eccentricity": 0.0001285,
        "meta_inclination": 98.58,
        "meta_ra_of_asc_node": 320.2988,
        "meta_arg_of_pericenter": 51.8448,
        "meta_mean_anomaly": 308.2845,
        "meta_ephemeris_type": 0,
        "meta_classification_type": "U",
        "meta_norad_cat_id": 64877,
        "meta_element_set_no": 999,
        "meta_rev_at_epoch": 2163,
        "meta_bstar": 5.7005e-05,
        "meta_mean_motion_dot": 8.2e-07,
        "meta_mean_motion_ddot": 0,
        "tle_line1": "1 64877U 25155B   25358.85530910  .00000082  00000+0  57005-4 0  9994",
        "tle_line2": "2 64877  98.5800 320.2988 0001285  51.8448 308.2845 14.21445014 21630"
      },
      "geometry": {
        "type": "Point",
        "coordinates": [
          148.21238691445694,
          41.26992235033334
        ]
      }
    },
    {
      "type": "Feature",
      "properties": {
        "norad_id": 64899,
        "name": "MICROCARB",
        "group": "resource",
        "lat": 32.51773230490314,
        "lon": 69.16486038982264,
        "alt_km": 649.1883565841563,
        "timestamp": "2025-12-25T03:55:55.964372+00:00",
        "meta_object_name": "MICROCARB",
        "meta_object_id": "2025-156A",
        "meta_epoch": "2025-12-24T17:59:43.152000",
        "meta_mean_motion": 14.72075752,
        "meta_eccentricity": 0.0017633,
        "meta_inclination": 98.001,
        "meta_ra_of_asc_node": 73.902,
        "meta_arg_of_pericenter": 108.7626,
        "meta_mean_anomaly": 251.5496,
        "meta_ephemeris_type": 0,
        "meta_classification_type": "U",
        "meta_norad_cat_id": 64899,
        "meta_element_set_no": 999,
        "meta_rev_at_epoch": 2230,
        "meta_bstar": 0.00011834,
        "meta_mean_motion_dot": 6.96e-06,
        "meta_mean_motion_ddot": 0,
        "tle_line1": "1 64899U 25156A   25358.74980500  .00000696  00000+0  11834-3 0  9991",
        "tle_line2": "2 64899  98.0010  73.9020 0017633 108.7626 251.5496 14.72075752 22306"
      },
      "geometry": {
        "type": "Point",
        "coordinates": [
          69.16486038982264,
          32.51773230490314
        ]
      }
    },
    {
      "type": "Feature",
      "properties": {
        "norad_id": 64900,
        "name": "CO3D 3",
        "group": "resource",
        "lat": 62.88141178827369,
        "lon": 60.58190626441094,
        "alt_km": 498.206075309834,
        "timestamp": "2025-12-25T03:55:55.964382+00:00",
        "meta_object_name": "CO3D 3",
        "meta_object_id": "2025-156B",
        "meta_epoch": "2025-12-24T19:45:13.239360",
        "meta_mean_motion": 15.20197258,
        "meta_eccentricity": 0.0001353,
        "meta_inclination": 97.4338,
        "meta_ra_of_asc_node": 75.0166,
        "meta_arg_of_pericenter": 71.4308,
        "meta_mean_anomaly": 288.7074,
        "meta_ephemeris_type": 0,
        "meta_classification_type": "U",
        "meta_norad_cat_id": 64900,
        "meta_element_set_no": 999,
        "meta_rev_at_epoch": 2304,
        "meta_bstar": 0.00029961,
        "meta_mean_motion_dot": 6.423e-05,
        "meta_mean_motion_ddot": 0,
        "tle_line1": "1 64900U 25156B   25358.82306990  .00006423  00000+0  29961-3 0  9992",
        "tle_line2": "2 64900  97.4338  75.0166 0001353  71.4308 288.7074 15.20197258 23040"
      },
      "geometry": {
        "type": "Point",
        "coordinates": [
          60.58190626441094,
          62.88141178827369
        ]
      }
    },
    {
      "type": "Feature",
      "properties": {
        "norad_id": 64901,
        "name": "CO3D 4",
        "group": "resource",
        "lat": 62.104954322501555,
        "lon": 61.073913280452096,
        "alt_km": 499.2165802476284,
        "timestamp": "2025-12-25T03:55:55.964392+00:00",
        "meta_object_name": "CO3D 4",
        "meta_object_id": "2025-156C",
        "meta_epoch": "2025-12-24T19:45:26.064576",
        "meta_mean_motion": 15.20220343,
        "meta_eccentricity": 0.000145,
        "meta_inclination": 97.4335,
        "meta_ra_of_asc_node": 75.0171,
        "meta_arg_of_pericenter": 158.2186,
        "meta_mean_anomaly": 201.9111,
        "meta_ephemeris_type": 0,
        "meta_classification_type": "U",
        "meta_norad_cat_id": 64901,
        "meta_element_set_no": 999,
        "meta_rev_at_epoch": 2304,
        "meta_bstar": 0.00023696,
        "meta_mean_motion_dot": 5.068e-05,
        "meta_mean_motion_ddot": 0,
        "tle_line1": "1 64901U 25156C   25358.82321834  .00005068  00000+0  23696-3 0  9990",
        "tle_line2": "2 64901  97.4335  75.0171 0001450 158.2186 201.9111 15.20220343 23041"
      },
      "geometry": {
        "type": "Point",
        "coordinates": [
          61.073913280452096,
          62.104954322501555
        ]
      }
    },
    {
      "type": "Feature",
      "properties": {
        "norad_id": 64902,
        "name": "CO3D 2",
        "group": "resource",
        "lat": -64.44461624978331,
        "lon": -120.59560527118794,
        "alt_km": 512.9983544656607,
        "timestamp": "2025-12-25T03:55:55.964402+00:00",
        "meta_object_name": "CO3D 2",
        "meta_object_id": "2025-156D",
        "meta_epoch": "2025-12-24T20:32:12.517152",
        "meta_mean_motion": 15.20196009,
        "meta_eccentricity": 7.52e-05,
        "meta_inclination": 97.4339,
        "meta_ra_of_asc_node": 74.9475,
        "meta_arg_of_pericenter": 64.6322,
        "meta_mean_anomaly": 295.499,
        "meta_ephemeris_type": 0,
        "meta_classification_type": "U",
        "meta_norad_cat_id": 64902,
        "meta_element_set_no": 999,
        "meta_rev_at_epoch": 2304,
        "meta_bstar": 0.0002727,
        "meta_mean_motion_dot": 5.839e-05,
        "meta_mean_motion_ddot": 0,
        "tle_line1": "1 64902U 25156D   25358.85570043  .00005839  00000+0  27270-3 0  9990",
        "tle_line2": "2 64902  97.4339  74.9475 0000752  64.6322 295.4990 15.20196009 23041"
      },
      "geometry": {
        "type": "Point",
        "coordinates": [
          -120.59560527118794,
          -64.44461624978331
        ]
      }
    }
  ]
}